*******************************************************************************
Ephemeris / WWW_USER Mon Mar 10 07:43:30 2025 Pasadena, USA      / Horizons    
*******************************************************************************
Target body name: (2013 AZ60)                     {source: JPL#49}
Center body name: Earth (399)                     {source: DE441}
Center-site name: Mauna Kea
*******************************************************************************
Start time      : A.D. 2018-Oct-27 04:00:00.0000 UT      
Stop  time      : A.D. 2018-Oct-27 16:11:00.0000 UT      
Step-size       : 1 minutes
*******************************************************************************
Target pole/equ : undefined
Target radii    : undefined                                                    
Center geodetic : 204.5278, 19.8260847, 4.21024   {E-lon(deg),Lat(deg),Alt(km)}
Center cylindric: 204.5278, 6006.35451, 2151.0229 {E-lon(deg),Dxy(km),Dz(km)}
Center pole/equ : ITRF93                          {East-longitude positive}
Center radii    : 6378.137, 6378.137, 6356.752 km {Equator_a, b, pole_c}       
Target primary  : Sun
Vis. interferer : MOON (R_eq= 1737.400) km        {source: DE441}
Rel. light bend : Sun                             {source: DE441}
Rel. lght bnd GM: 1.3271E+11 km^3/s^2                                          
Small-body perts: Yes                             {source: SB441-N16}
Atmos refraction: NO (AIRLESS)
RA format       : HMS
Time format     : CAL 
Calendar mode   : Mixed Julian/Gregorian
RTS-only print  : NO       
EOP file        : eop.250307.p250603                                           
EOP coverage    : DATA-BASED 1962-JAN-20 TO 2025-MAR-07. PREDICTS-> 2025-JUN-02
Units conversion: 1 au= 149597870.700 km, c= 299792.458 km/s, 1 day= 86400.0 s 
Table cut-offs 1: Elevation (-90.0deg=NO ),Airmass (>38.000=NO), Daylight (YES)
Table cut-offs 2: Solar elongation (  0.0,180.0=NO ),Local Hour Angle( 0.0=NO )
Table cut-offs 3: RA/DEC angular rate (     0.0=NO )                           
*******************************************************************************
Initial IAU76/J2000 heliocentric ecliptic osculating elements (au, days, deg.):
  EPOCH=  2457400.5 ! 2016-Jan-13.00 (TDB)         Residual RMS= .1326         
   EC= .9891456016948332   QR= 7.910280980491398   TP= 2456989.3208761909      
   OM= 349.2102750469422   W=  158.2320149266156   IN= 16.53862471305098       
  Equivalent ICRF heliocentric cartesian coordinates (au, au/d):
   X=-8.215502218447208E+00  Y= 1.083611838195559E+00  Z= 3.298265209415168E-01
  VX=-2.822922434188891E-03 VY=-6.008885131743716E-03 VZ=-5.184670886061429E-03
Asteroid physical parameters (km, seconds, rotational period in hours):        
   GM= n.a.                RAD= n.a.               ROTPER= 9.39                
   H= 10.3                 G= .150                 B-V= n.a.                   
                           ALBEDO= n.a.            STYP= n.a.                  
*******************************************************************************
 Date__(UT)__HR:MN     R.A._________(ICRF)_________DEC
******************************************************
$$SOE
 2018-Oct-27 08:06  m  13 52 36.016393 -23 16 54.69714
 2018-Oct-27 08:07  m  13 52 36.034211 -23 16 54.80500
 2018-Oct-27 08:08  m  13 52 36.052030 -23 16 54.91287
 2018-Oct-27 08:09  m  13 52 36.069849 -23 16 55.02074
 2018-Oct-27 08:10  m  13 52 36.087669 -23 16 55.12862
 2018-Oct-27 08:11  m  13 52 36.105489 -23 16 55.23650
 2018-Oct-27 08:12  m  13 52 36.123309 -23 16 55.34439
 2018-Oct-27 08:13  m  13 52 36.141130 -23 16 55.45228
 2018-Oct-27 08:14  m  13 52 36.158951 -23 16 55.56018
 2018-Oct-27 08:15  m  13 52 36.176772 -23 16 55.66808
 2018-Oct-27 08:16  m  13 52 36.194594 -23 16 55.77599
 2018-Oct-27 08:17  m  13 52 36.212417 -23 16 55.88390
 2018-Oct-27 08:18  m  13 52 36.230239 -23 16 55.99182
 2018-Oct-27 08:19  m  13 52 36.248062 -23 16 56.09974
 2018-Oct-27 08:20  m  13 52 36.265885 -23 16 56.20767
 2018-Oct-27 08:21  m  13 52 36.283709 -23 16 56.31560
 2018-Oct-27 08:22  m  13 52 36.301533 -23 16 56.42354
 2018-Oct-27 08:23  m  13 52 36.319358 -23 16 56.53148
 2018-Oct-27 08:24  m  13 52 36.337182 -23 16 56.63942
 2018-Oct-27 08:25  m  13 52 36.355007 -23 16 56.74737
 2018-Oct-27 08:26  m  13 52 36.372833 -23 16 56.85533
 2018-Oct-27 08:27  m  13 52 36.390658 -23 16 56.96329
 2018-Oct-27 08:28  m  13 52 36.408484 -23 16 57.07126
 2018-Oct-27 08:29  m  13 52 36.426311 -23 16 57.17923
 2018-Oct-27 08:30  m  13 52 36.444138 -23 16 57.28721
 2018-Oct-27 08:31  m  13 52 36.461965 -23 16 57.39519
 2018-Oct-27 08:32  m  13 52 36.479792 -23 16 57.50317
 2018-Oct-27 08:33  m  13 52 36.497620 -23 16 57.61116
 2018-Oct-27 08:34  m  13 52 36.515448 -23 16 57.71916
 2018-Oct-27 08:35  m  13 52 36.533276 -23 16 57.82716
 2018-Oct-27 08:36  m  13 52 36.551104 -23 16 57.93517
 2018-Oct-27 08:37  m  13 52 36.568933 -23 16 58.04318
 2018-Oct-27 08:38  m  13 52 36.586762 -23 16 58.15119
 2018-Oct-27 08:39  m  13 52 36.604592 -23 16 58.25922
 2018-Oct-27 08:40  m  13 52 36.622421 -23 16 58.36724
 2018-Oct-27 08:41  m  13 52 36.640251 -23 16 58.47527
 2018-Oct-27 08:42  m  13 52 36.658082 -23 16 58.58331
 2018-Oct-27 08:43  m  13 52 36.675912 -23 16 58.69135
 2018-Oct-27 08:44  m  13 52 36.693743 -23 16 58.79940
 2018-Oct-27 08:45  m  13 52 36.711574 -23 16 58.90745
 2018-Oct-27 08:46  m  13 52 36.729406 -23 16 59.01551
 2018-Oct-27 08:47  m  13 52 36.747237 -23 16 59.12357
 2018-Oct-27 08:48  m  13 52 36.765069 -23 16 59.23163
 2018-Oct-27 08:49  m  13 52 36.782901 -23 16 59.33971
 2018-Oct-27 08:50  m  13 52 36.800733 -23 16 59.44778
 2018-Oct-27 08:51  m  13 52 36.818566 -23 16 59.55587
 2018-Oct-27 08:52  m  13 52 36.836399 -23 16 59.66395
 2018-Oct-27 08:53  m  13 52 36.854232 -23 16 59.77205
 2018-Oct-27 08:54  m  13 52 36.872065 -23 16 59.88014
 2018-Oct-27 08:55  m  13 52 36.889899 -23 16 59.98825
 2018-Oct-27 08:56  m  13 52 36.907732 -23 17 00.09635
 2018-Oct-27 08:57  m  13 52 36.925566 -23 17 00.20447
 2018-Oct-27 08:58  m  13 52 36.943400 -23 17 00.31259
 2018-Oct-27 08:59  m  13 52 36.961235 -23 17 00.42071
 2018-Oct-27 09:00  m  13 52 36.979069 -23 17 00.52884
 2018-Oct-27 09:01  m  13 52 36.996904 -23 17 00.63697
 2018-Oct-27 09:02  m  13 52 37.014739 -23 17 00.74511
 2018-Oct-27 09:03  m  13 52 37.032574 -23 17 00.85325
 2018-Oct-27 09:04  m  13 52 37.050410 -23 17 00.96140
 2018-Oct-27 09:05  m  13 52 37.068245 -23 17 01.06956
 2018-Oct-27 09:06  m  13 52 37.086081 -23 17 01.17772
 2018-Oct-27 09:07  m  13 52 37.103917 -23 17 01.28588
 2018-Oct-27 09:08  m  13 52 37.121753 -23 17 01.39405
 2018-Oct-27 09:09  m  13 52 37.139589 -23 17 01.50223
 2018-Oct-27 09:10  m  13 52 37.157425 -23 17 01.61041
 2018-Oct-27 09:11  m  13 52 37.175262 -23 17 01.71859
 2018-Oct-27 09:12  m  13 52 37.193099 -23 17 01.82679
 2018-Oct-27 09:13  m  13 52 37.210936 -23 17 01.93498
 2018-Oct-27 09:14  m  13 52 37.228773 -23 17 02.04318
 2018-Oct-27 09:15  m  13 52 37.246610 -23 17 02.15139
 2018-Oct-27 09:16  m  13 52 37.264447 -23 17 02.25960
 2018-Oct-27 09:17  m  13 52 37.282285 -23 17 02.36782
 2018-Oct-27 09:18  m  13 52 37.300122 -23 17 02.47604
 2018-Oct-27 09:19  m  13 52 37.317960 -23 17 02.58427
 2018-Oct-27 09:20  m  13 52 37.335798 -23 17 02.69250
 2018-Oct-27 09:21  m  13 52 37.353636 -23 17 02.80074
 2018-Oct-27 09:22  m  13 52 37.371474 -23 17 02.90898
 2018-Oct-27 09:23  m  13 52 37.389312 -23 17 03.01723
 2018-Oct-27 09:24  m  13 52 37.407150 -23 17 03.12549
 2018-Oct-27 09:25  m  13 52 37.424989 -23 17 03.23375
 2018-Oct-27 09:26  m  13 52 37.442827 -23 17 03.34201
 2018-Oct-27 09:27  m  13 52 37.460666 -23 17 03.45028
 2018-Oct-27 09:28  m  13 52 37.478505 -23 17 03.55855
 2018-Oct-27 09:29  m  13 52 37.496343 -23 17 03.66684
 2018-Oct-27 09:30  m  13 52 37.514182 -23 17 03.77512
 2018-Oct-27 09:31  m  13 52 37.532021 -23 17 03.88341
 2018-Oct-27 09:32  m  13 52 37.549860 -23 17 03.99171
 2018-Oct-27 09:33  m  13 52 37.567700 -23 17 04.10001
 2018-Oct-27 09:34  m  13 52 37.585539 -23 17 04.20832
 2018-Oct-27 09:35  m  13 52 37.603378 -23 17 04.31663
 2018-Oct-27 09:36  m  13 52 37.621217 -23 17 04.42495
 2018-Oct-27 09:37  m  13 52 37.639057 -23 17 04.53327
 2018-Oct-27 09:38  m  13 52 37.656896 -23 17 04.64160
 2018-Oct-27 09:39  m  13 52 37.674736 -23 17 04.74993
 2018-Oct-27 09:40  m  13 52 37.692575 -23 17 04.85827
 2018-Oct-27 09:41  m  13 52 37.710415 -23 17 04.96661
 2018-Oct-27 09:42  m  13 52 37.728254 -23 17 05.07496
 2018-Oct-27 09:43  m  13 52 37.746094 -23 17 05.18332
 2018-Oct-27 09:44  m  13 52 37.763934 -23 17 05.29167
 2018-Oct-27 09:45  m  13 52 37.781773 -23 17 05.40004
 2018-Oct-27 09:46  m  13 52 37.799613 -23 17 05.50841
 2018-Oct-27 09:47  m  13 52 37.817453 -23 17 05.61679
 2018-Oct-27 09:48  m  13 52 37.835293 -23 17 05.72517
 2018-Oct-27 09:49  m  13 52 37.853132 -23 17 05.83355
 2018-Oct-27 09:50  m  13 52 37.870972 -23 17 05.94194
 2018-Oct-27 09:51  m  13 52 37.888812 -23 17 06.05034
 2018-Oct-27 09:52  m  13 52 37.906652 -23 17 06.15874
 2018-Oct-27 09:53  m  13 52 37.924492 -23 17 06.26715
 2018-Oct-27 09:54  m  13 52 37.942331 -23 17 06.37556
 2018-Oct-27 09:55  m  13 52 37.960171 -23 17 06.48398
 2018-Oct-27 09:56  m  13 52 37.978011 -23 17 06.59241
 2018-Oct-27 09:57  m  13 52 37.995851 -23 17 06.70083
 2018-Oct-27 09:58  m  13 52 38.013690 -23 17 06.80927
 2018-Oct-27 09:59  m  13 52 38.031530 -23 17 06.91771
 2018-Oct-27 10:00  m  13 52 38.049369 -23 17 07.02615
 2018-Oct-27 10:01  m  13 52 38.067209 -23 17 07.13460
 2018-Oct-27 10:02  m  13 52 38.085049 -23 17 07.24306
 2018-Oct-27 10:03  m  13 52 38.102888 -23 17 07.35152
 2018-Oct-27 10:04  m  13 52 38.120728 -23 17 07.45998
 2018-Oct-27 10:05  m  13 52 38.138567 -23 17 07.56845
 2018-Oct-27 10:06  m  13 52 38.156406 -23 17 07.67693
 2018-Oct-27 10:07  m  13 52 38.174246 -23 17 07.78541
 2018-Oct-27 10:08  m  13 52 38.192085 -23 17 07.89390
